SL-3 R/B                
1 13403U 82079B   26070.17620095  .00007997  00000+0  31825-3 0  9995
2 13403  81.1478 191.3222 0025087 159.8445 200.3785 15.24826612377920
SL-14 R/B               
1 13553U 82092B   26070.19063551  .00000527  00000+0  56399-4 0  9992
2 13553  82.5692 139.9957 0018936 298.1561 117.9284 14.86667934329159
SL-3 R/B                
1 13819U 83010B   26070.18454401  .00020060  00000+0  40192-3 0  9992
2 13819  81.1060   0.4146 0017855  46.0572 314.2142 15.46418256358178
SL-3 R/B                
1 14208U 83075B   26070.18309359  .00012742  00000+0  33568-3 0  9994
2 14208  97.6147  74.8168 0020238 220.1974 139.7775 15.38458400330389
COSMOS 1536             
1 14699U 84013A   26070.16456844  .00007236  00000+0  29825-3 0  9994
2 14699  82.5431 106.3843 0012497 277.4551  82.5266 15.23847163272845
SL-14 R/B               
1 14820U 84027B   26069.97255497  .00000622  00000+0  68366-4 0  9999
2 14820  82.5388 243.8091 0017236 333.4752  26.5580 14.85978018247824
SL-8 R/B                
1 15483U 85006B   26069.99952802  .00000375  00000+0  13312-3 0  9994
2 15483  74.0432 258.7380 0018404 176.2614 346.0057 14.37784038154213
SL-12 R/B(2)            
1 15772U 85042D   26070.17254473  .00000091  00000+0  62464-4 0  9994
2 15772  71.1063  84.5955 0033171 125.7074 301.0835 14.21982747114606
SL-14 R/B               
1 15945U 85069B   26070.15890085  .00000676  00000+0  73626-4 0  9999
2 15945  82.5288  23.5515 0018608 182.8000 177.3116 14.86435122173050
SL-16 R/B               
1 16182U 85097B   26070.18819405 -.00000181  00000+0 -66586-4 0  9994
2 16182  71.0025 137.3999 0009883 257.9944 169.0912 14.16598491 87443
SL-14 R/B               
1 16496U 86006B   26069.93368369  .00000798  00000+0  82347-4 0  9997
2 16496  82.5235 258.5660 0075057 268.5796  90.6822 14.86816820149399
COSMOS 1743             
1 16719U 86034A   26070.05451854  .00038159  00000+0  49529-3 0  9999
2 16719  82.5297  72.3984 0001516 279.1264  80.9820 15.58655444180469
