CCSDS_OMM_VERS = 2.0
CREATION_DATE  = 
ORIGINATOR     = 

OBJECT_NAME    = SL-3 R/B
OBJECT_ID      = 1982-079B
CENTER_NAME    = EARTH
REF_FRAME      = TEME
TIME_SYSTEM    = UTC
MEAN_ELEMENT_THEORY = SGP/SGP4

EPOCH          = 2026-03-11T04:13:43.762080
MEAN_MOTION    = 15.24826612
ECCENTRICITY   = .0025087
INCLINATION    = 81.1478
RA_OF_ASC_NODE = 191.3222
ARG_OF_PERICENTER = 159.8445
MEAN_ANOMALY   = 200.3785

EPHEMERIS_TYPE = 0
CLASSIFICATION_TYPE = U
NORAD_CAT_ID   = 13403
ELEMENT_SET_NO = 999
REV_AT_EPOCH   = 37792
BSTAR          = .31825E-3
MEAN_MOTION_DOT = .7997E-4
MEAN_MOTION_DDOT = 0

CCSDS_OMM_VERS = 2.0
CREATION_DATE  = 
ORIGINATOR     = 

OBJECT_NAME    = SL-14 R/B
OBJECT_ID      = 1982-092B
CENTER_NAME    = EARTH
REF_FRAME      = TEME
TIME_SYSTEM    = UTC
MEAN_ELEMENT_THEORY = SGP/SGP4

EPOCH          = 2026-03-11T04:34:30.908064
MEAN_MOTION    = 14.86667934
ECCENTRICITY   = .0018936
INCLINATION    = 82.5692
RA_OF_ASC_NODE = 139.9957
ARG_OF_PERICENTER = 298.1561
MEAN_ANOMALY   = 117.9284

EPHEMERIS_TYPE = 0
CLASSIFICATION_TYPE = U
NORAD_CAT_ID   = 13553
ELEMENT_SET_NO = 999
REV_AT_EPOCH   = 32915
BSTAR          = .56399E-4
MEAN_MOTION_DOT = .527E-5
MEAN_MOTION_DDOT = 0

CCSDS_OMM_VERS = 2.0
CREATION_DATE  = 
ORIGINATOR     = 

OBJECT_NAME    = SL-3 R/B
OBJECT_ID      = 1983-010B
CENTER_NAME    = EARTH
REF_FRAME      = TEME
TIME_SYSTEM    = UTC
MEAN_ELEMENT_THEORY = SGP/SGP4

EPOCH          = 2026-03-11T04:25:44.602464
MEAN_MOTION    = 15.46418256
ECCENTRICITY   = .0017855
INCLINATION    = 81.1060
RA_OF_ASC_NODE = 0.4146
ARG_OF_PERICENTER = 46.0572
MEAN_ANOMALY   = 314.2142

EPHEMERIS_TYPE = 0
CLASSIFICATION_TYPE = U
NORAD_CAT_ID   = 13819
ELEMENT_SET_NO = 999
REV_AT_EPOCH   = 35817
BSTAR          = .40192E-3
MEAN_MOTION_DOT = .2006E-3
MEAN_MOTION_DDOT = 0

CCSDS_OMM_VERS = 2.0
CREATION_DATE  = 
ORIGINATOR     = 

OBJECT_NAME    = SL-3 R/B
OBJECT_ID      = 1983-075B
CENTER_NAME    = EARTH
REF_FRAME      = TEME
TIME_SYSTEM    = UTC
MEAN_ELEMENT_THEORY = SGP/SGP4

EPOCH          = 2026-03-11T04:23:39.286176
MEAN_MOTION    = 15.38458400
ECCENTRICITY   = .0020238
INCLINATION    = 97.6147
RA_OF_ASC_NODE = 74.8168
ARG_OF_PERICENTER = 220.1974
MEAN_ANOMALY   = 139.7775

EPHEMERIS_TYPE = 0
CLASSIFICATION_TYPE = U
NORAD_CAT_ID   = 14208
ELEMENT_SET_NO = 999
REV_AT_EPOCH   = 33038
BSTAR          = .33568E-3
MEAN_MOTION_DOT = .12742E-3
MEAN_MOTION_DDOT = 0

CCSDS_OMM_VERS = 2.0
CREATION_DATE  = 
ORIGINATOR     = 

OBJECT_NAME    = COSMOS 1536
OBJECT_ID      = 1984-013A
CENTER_NAME    = EARTH
REF_FRAME      = TEME
TIME_SYSTEM    = UTC
MEAN_ELEMENT_THEORY = SGP/SGP4

EPOCH          = 2026-03-11T03:56:58.713216
MEAN_MOTION    = 15.23847163
ECCENTRICITY   = .0012497
INCLINATION    = 82.5431
RA_OF_ASC_NODE = 106.3843
ARG_OF_PERICENTER = 277.4551
MEAN_ANOMALY   = 82.5266

EPHEMERIS_TYPE = 0
CLASSIFICATION_TYPE = U
NORAD_CAT_ID   = 14699
ELEMENT_SET_NO = 999
REV_AT_EPOCH   = 27284
BSTAR          = .29825E-3
MEAN_MOTION_DOT = .7236E-4
MEAN_MOTION_DDOT = 0

CCSDS_OMM_VERS = 2.0
CREATION_DATE  = 
ORIGINATOR     = 

OBJECT_NAME    = SL-14 R/B
OBJECT_ID      = 1984-027B
CENTER_NAME    = EARTH
REF_FRAME      = TEME
TIME_SYSTEM    = UTC
MEAN_ELEMENT_THEORY = SGP/SGP4

EPOCH          = 2026-03-10T23:20:28.749408
MEAN_MOTION    = 14.85978018
ECCENTRICITY   = .0017236
INCLINATION    = 82.5388
RA_OF_ASC_NODE = 243.8091
ARG_OF_PERICENTER = 333.4752
MEAN_ANOMALY   = 26.5580

EPHEMERIS_TYPE = 0
CLASSIFICATION_TYPE = U
NORAD_CAT_ID   = 14820
ELEMENT_SET_NO = 999
REV_AT_EPOCH   = 24782
BSTAR          = .68366E-4
MEAN_MOTION_DOT = .622E-5
MEAN_MOTION_DDOT = 0

CCSDS_OMM_VERS = 2.0
CREATION_DATE  = 
ORIGINATOR     = 

OBJECT_NAME    = SL-8 R/B
OBJECT_ID      = 1985-006B
CENTER_NAME    = EARTH
REF_FRAME      = TEME
TIME_SYSTEM    = UTC
MEAN_ELEMENT_THEORY = SGP/SGP4

EPOCH          = 2026-03-10T23:59:19.220928
MEAN_MOTION    = 14.37784038
ECCENTRICITY   = .0018404
INCLINATION    = 74.0432
RA_OF_ASC_NODE = 258.7380
ARG_OF_PERICENTER = 176.2614
MEAN_ANOMALY   = 346.0057

EPHEMERIS_TYPE = 0
CLASSIFICATION_TYPE = U
NORAD_CAT_ID   = 15483
ELEMENT_SET_NO = 999
REV_AT_EPOCH   = 15421
BSTAR          = .13312E-3
MEAN_MOTION_DOT = .375E-5
MEAN_MOTION_DDOT = 0

CCSDS_OMM_VERS = 2.0
CREATION_DATE  = 
ORIGINATOR     = 

OBJECT_NAME    = SL-12 R/B(2)
OBJECT_ID      = 1985-042D
CENTER_NAME    = EARTH
REF_FRAME      = TEME
TIME_SYSTEM    = UTC
MEAN_ELEMENT_THEORY = SGP/SGP4

EPOCH          = 2026-03-11T04:08:27.864672
MEAN_MOTION    = 14.21982747
ECCENTRICITY   = .0033171
INCLINATION    = 71.1063
RA_OF_ASC_NODE = 84.5955
ARG_OF_PERICENTER = 125.7074
MEAN_ANOMALY   = 301.0835

EPHEMERIS_TYPE = 0
CLASSIFICATION_TYPE = U
NORAD_CAT_ID   = 15772
ELEMENT_SET_NO = 999
REV_AT_EPOCH   = 11460
BSTAR          = .62464E-4
MEAN_MOTION_DOT = .91E-6
MEAN_MOTION_DDOT = 0

CCSDS_OMM_VERS = 2.0
CREATION_DATE  = 
ORIGINATOR     = 

OBJECT_NAME    = SL-14 R/B
OBJECT_ID      = 1985-069B
CENTER_NAME    = EARTH
REF_FRAME      = TEME
TIME_SYSTEM    = UTC
MEAN_ELEMENT_THEORY = SGP/SGP4

EPOCH          = 2026-03-11T03:48:49.033440
MEAN_MOTION    = 14.86435122
ECCENTRICITY   = .0018608
INCLINATION    = 82.5288
RA_OF_ASC_NODE = 23.5515
ARG_OF_PERICENTER = 182.8000
MEAN_ANOMALY   = 177.3116

EPHEMERIS_TYPE = 0
CLASSIFICATION_TYPE = U
NORAD_CAT_ID   = 15945
ELEMENT_SET_NO = 999
REV_AT_EPOCH   = 17305
BSTAR          = .73626E-4
MEAN_MOTION_DOT = .676E-5
MEAN_MOTION_DDOT = 0

CCSDS_OMM_VERS = 2.0
CREATION_DATE  = 
ORIGINATOR     = 

OBJECT_NAME    = SL-16 R/B
OBJECT_ID      = 1985-097B
CENTER_NAME    = EARTH
REF_FRAME      = TEME
TIME_SYSTEM    = UTC
MEAN_ELEMENT_THEORY = SGP/SGP4

EPOCH          = 2026-03-11T04:30:59.965920
MEAN_MOTION    = 14.16598491
ECCENTRICITY   = .0009883
INCLINATION    = 71.0025
RA_OF_ASC_NODE = 137.3999
ARG_OF_PERICENTER = 257.9944
MEAN_ANOMALY   = 169.0912

EPHEMERIS_TYPE = 0
CLASSIFICATION_TYPE = U
NORAD_CAT_ID   = 16182
ELEMENT_SET_NO = 999
REV_AT_EPOCH   = 8744
BSTAR          = -.66586E-4
MEAN_MOTION_DOT = -.181E-5
MEAN_MOTION_DDOT = 0

CCSDS_OMM_VERS = 2.0
CREATION_DATE  = 
ORIGINATOR     = 

OBJECT_NAME    = SL-14 R/B
OBJECT_ID      = 1986-006B
CENTER_NAME    = EARTH
REF_FRAME      = TEME
TIME_SYSTEM    = UTC
MEAN_ELEMENT_THEORY = SGP/SGP4

EPOCH          = 2026-03-10T22:24:30.270816
MEAN_MOTION    = 14.86816820
ECCENTRICITY   = .0075057
INCLINATION    = 82.5235
RA_OF_ASC_NODE = 258.5660
ARG_OF_PERICENTER = 268.5796
MEAN_ANOMALY   = 90.6822

EPHEMERIS_TYPE = 0
CLASSIFICATION_TYPE = U
NORAD_CAT_ID   = 16496
ELEMENT_SET_NO = 999
REV_AT_EPOCH   = 14939
BSTAR          = .82347E-4
MEAN_MOTION_DOT = .798E-5
MEAN_MOTION_DDOT = 0

CCSDS_OMM_VERS = 2.0
CREATION_DATE  = 
ORIGINATOR     = 

OBJECT_NAME    = COSMOS 1743
OBJECT_ID      = 1986-034A
CENTER_NAME    = EARTH
REF_FRAME      = TEME
TIME_SYSTEM    = UTC
MEAN_ELEMENT_THEORY = SGP/SGP4

EPOCH          = 2026-03-11T01:18:30.401856
MEAN_MOTION    = 15.58655444
ECCENTRICITY   = .0001516
INCLINATION    = 82.5297
RA_OF_ASC_NODE = 72.3984
ARG_OF_PERICENTER = 279.1264
MEAN_ANOMALY   = 80.9820

EPHEMERIS_TYPE = 0
CLASSIFICATION_TYPE = U
NORAD_CAT_ID   = 16719
ELEMENT_SET_NO = 999
REV_AT_EPOCH   = 18046
BSTAR          = .49529E-3
MEAN_MOTION_DOT = .38159E-3
MEAN_MOTION_DDOT = 0

